NORAD_CAT_ID,OBJECT_NAME,OBJECT_TYPE,EPOCH,MEAN_MOTION,ECCENTRICITY,INCLINATION,RA_OF_ASC_NODE,ARG_OF_PERICENTER,MEAN_ANOMALY,BSTAR,MEAN_MOTION_DOT,MEAN_MOTION_DDOT,TLE_LINE0,TLE_LINE1,TLE_LINE2,SEMIMAJOR_AXIS,PERIOD,APOGEE,PERIGEE,DECAYED
55308.0,STARLINK-5292,PAYLOAD,2023-04-06 09:37:44,15.69919813,0.0003639,70.0009,212.7822,276.8273,83.2509,7.1469e-06,6.46e-06,0.0,0 STARLINK-5292,1 55308U 23010AR  23096.40120385  .00000646  00000-0  71469-5 0  9998,2 55308  70.0009 212.7822 0003639 276.8273  83.2509 15.69919813 12573,6737.263,91.724,361.58,356.677,0.0
55308.0,STARLINK-5292,PAYLOAD,2023-04-06 11:09:29,15.69920175,0.0003556,70.0009,212.603,277.6805,82.3987,8.8309e-06,8.49e-06,0.0,0 STARLINK-5292,1 55308U 23010AR  23096.46492086  .00000849  00000-0  88309-5 0  9990,2 55308  70.0009 212.6030 0003556 277.6805  82.3987 15.69920175 13777,6737.262,91.724,361.523,356.732,0.0
55308.0,STARLINK-5292,PAYLOAD,2023-04-07 10:05:45,15.69930465,0.0003586,70.0004,209.9164,274.2074,85.8712,6.5547e-06,5.76e-06,0.0,0 STARLINK-5292,1 55308U 23010AR  23097.42066750  .00000576  00000-0  65547-5 0  9998,2 55308  70.0004 209.9164 0003586 274.2074  85.8712 15.69930465 12735,6737.233,91.724,361.514,356.682,0.0
55308.0,STARLINK-5292,PAYLOAD,2023-04-08 05:58:32,15.69921746,0.0003189,70.0021,207.5921,279.1762,80.9073,9.6726e-06,9.5e-06,0.0,0 STARLINK-5292,1 55308U 23010AR  23098.24898953  .00000950  00000-0  96726-5 0  9996,2 55308  70.0021 207.5921 0003189 279.1762  80.9073 15.69921746 12868,6737.258,91.724,361.271,356.974,0.0
55308.0,STARLINK-5292,PAYLOAD,2023-04-08 10:33:48,15.69912986,0.0003325,70.0,207.0495,265.2438,94.8378,-3.4283e-06,-6.25e-06,0.0,0 STARLINK-5292,1 55308U 23010AR  23098.44014405 -.00000625  00000-0 -34283-5 0  9991,2 55308  70.0000 207.0495 0003325 265.2438  94.8378 15.69912986 14088,6737.283,91.725,361.388,356.908,0.0
55308.0,STARLINK-5292,PAYLOAD,2023-04-09 06:26:34,15.69926485,0.0003008,70.0017,204.7243,271.8305,88.2546,6.2585e-06,5.4e-06,0.0,0 STARLINK-5292,1 55308U 23010AR  23099.26845673  .00000540  00000-0  62585-5 0  9991,2 55308  70.0017 204.7243 0003008 271.8305  88.2546 15.69926485 13021,6737.244,91.724,361.136,357.083,0.0
55308.0,STARLINK-5292,PAYLOAD,2023-04-09 09:30:04,15.69926571,0.0003473,70.002,204.3655,261.0238,99.0565,4.4637e-06,3.24e-06,0.0,0 STARLINK-5292,1 55308U 23010AR  23099.39588842  .00000324  00000-0  44637-5 0  9995,2 55308  70.0020 204.3655 0003473 261.0238  99.0565 15.69926571 14231,6737.244,91.724,361.449,356.769,0.0
55308.0,STARLINK-5292,PAYLOAD,2023-04-09 18:40:35,15.69930712,0.000334,70.0006,203.2888,266.0327,94.0487,2.2942e-05,2.547e-05,0.0,0 STARLINK-5292,1 55308U 23010AR  23099.77818745  .00002547  00000-0  22942-4 0  9998,2 55308  70.0006 203.2888 0003340 266.0327  94.0487 15.69930712 14294,6737.232,91.724,361.347,356.847,0.0
55308.0,STARLINK-5292,PAYLOAD,2023-04-10 06:54:36,15.69924224,0.00036,70.0006,201.8561,261.3131,98.7657,2.2685e-05,2.516e-05,0.0,0 STARLINK-5292,1 55308U 23010AR  23100.28792356  .00002516  00000-0  22685-4 0  9996,2 55308  70.0006 201.8561 0003600 261.3131  98.7657 15.69924224 13184,6737.251,91.724,361.541,356.69,0.0
55308.0,STARLINK-5292,PAYLOAD,2023-04-10 08:26:21,15.69924961,0.000343,70.001,201.6769,259.6319,100.449,3.1094e-05,3.528e-05,0.0,0 STARLINK-5292,1 55308U 23010AR  23100.35164035  .00003528  00000-0  31094-4 0  9999,2 55308  70.0010 201.6769 0003430 259.6319 100.4490 15.69924961 14383,6737.249,91.724,361.425,356.803,0.0
55308.0,STARLINK-5292,PAYLOAD,2023-04-10 19:08:37,15.6992953,0.0003461,70.0005,200.4224,258.4691,101.6116,1.7436e-05,1.885e-05,0.0,0 STARLINK-5292,1 55308U 23010AR  23100.79765396  .00001885  00000-0  17436-4 0  9992,2 55308  70.0005 200.4224 0003461 258.4691 101.6116 15.69929530 14457,6737.236,91.724,361.432,356.769,0.0
55308.0,STARLINK-5292,PAYLOAD,2023-04-11 08:54:24,15.69912429,0.0003558,69.9994,198.8112,261.0446,99.0347,-9.5536e-06,-1.361e-05,0.0,0 STARLINK-5292,1 55308U 23010AR  23101.37112028 -.00001361  00000-0 -95536-5 0  9994,2 55308  69.9994 198.8112 0003558 261.0446  99.0347 15.69912429 13355,6737.285,91.725,361.547,356.752,0.0
55308.0,STARLINK-5292,PAYLOAD,2023-04-12 12:25:55,15.69940064,0.0004105,69.9981,195.5863,269.5568,90.5157,1.4011e-05,1.473e-05,0.0,0 STARLINK-5292,1 55308U 23010AR  23102.51799846  .00001473  00000-0  14011-4 0  9990,2 55308  69.9981 195.5863 0004105 269.5568  90.5157 15.69940064 13536,6737.205,91.723,361.836,356.305,0.0
55308.0,STARLINK-5292,PAYLOAD,2023-04-13 09:50:27,15.69923174,0.0003984,70.0003,193.0793,271.3803,88.6936,2.901e-05,3.277e-05,0.0,0 STARLINK-5292,1 55308U 23010AR  23103.41004570  .00003277  00000-0  29010-4 0  9992,2 55308  70.0003 193.0793 0003984 271.3803  88.6936 15.69923174 14869,6737.254,91.724,361.803,356.435,0.0
55308.0,STARLINK-5292,PAYLOAD,2023-04-14 08:46:44,15.69934907,0.0003579,70.0004,190.3937,272.1961,87.8825,1.0897e-05,1.098e-05,0.0,0 STARLINK-5292,1 55308U 23010AR  23104.36578733  .00001098  00000-0  10897-4 0  9996,2 55308  70.0004 190.3937 0003579 272.1961  87.8825 15.69934907 15016,6737.22,91.724,361.496,356.674,0.0
55308.0,STARLINK-5292,PAYLOAD,2023-04-15 07:43:01,15.6991807,0.0003798,69.9998,187.7053,272.4717,87.6044,-9.6508e-06,-1.373e-05,0.0,0 STARLINK-5292,1 55308U 23010AR  23105.32154695 -.00001373  00000-0 -96508-5 0  9992,2 55308  69.9998 187.7053 0003798 272.4717  87.6044 15.69918070 13976,6737.268,91.725,361.692,356.575,0.0
55308.0,STARLINK-5292,PAYLOAD,2023-04-15 13:50:02,15.69920673,0.0003786,70.0,186.9893,276.1947,83.8817,-2.4637e-06,-5.09e-06,0.0,0 STARLINK-5292,1 55308U 23010AR  23105.57641365 -.00000509  00000-0 -24637-5 0  9998,2 55308  70.0000 186.9893 0003786 276.1947  83.8817 15.69920673 15205,6737.261,91.724,361.677,356.575,0.0
55308.0,STARLINK-5292,PAYLOAD,2023-04-15 16:53:32,15.69925246,0.0003528,69.9999,186.6297,266.7164,93.3628,6.6517e-06,5.87e-06,0.0,0 STARLINK-5292,1 55308U 23010AR  23105.70384456  .00000587  00000-0  66517-5 0  9995,2 55308  69.9999 186.6297 0003528 266.7164  93.3628 15.69925246 14031,6737.248,91.724,361.49,356.736,0.0
55308.0,STARLINK-5292,PAYLOAD,2023-04-16 12:46:18,15.69920275,0.0003694,69.9991,184.3016,266.4154,93.662,-1.0903e-05,-1.524e-05,0.0,0 STARLINK-5292,1 55308U 23010AR  23106.53216408 -.00001524  00000-0 -10903-4 0  9999,2 55308  69.9991 184.3016 0003694 266.4154  93.6620 15.69920275 15355,6737.262,91.724,361.616,356.638,0.0
55308.0,STARLINK-5292,PAYLOAD,2023-04-16 17:21:34,15.69928257,0.0002964,69.9998,183.7647,276.3772,83.7086,2.6846e-05,3.017e-05,0.0,0 STARLINK-5292,1 55308U 23010AR  23106.72331425  .00003017  00000-0  26846-4 0  9997,2 55308  69.9998 183.7647 0002964 276.3772  83.7086 15.69928257 14195,6737.239,91.724,361.101,357.107,0.0
55308.0,STARLINK-5292,PAYLOAD,2023-04-17 13:14:21,15.69922618,0.0002577,69.999,181.4349,252.9981,107.0932,2.2331e-05,2.473e-05,0.0,0 STARLINK-5292,1 55308U 23010AR  23107.55163224  .00002473  00000-0  22331-4 0  9999,2 55308  69.9990 181.4349 0002577 252.9981 107.0932 15.69922618 15515,6737.255,91.724,360.857,357.384,0.0
55308.0,STARLINK-5292,PAYLOAD,2023-04-17 14:46:06,15.69916463,0.0002578,69.9981,181.2559,286.5008,73.5904,1.3169e-05,1.371e-05,0.0,0 STARLINK-5292,1 55308U 23010AR  23107.61535779  .00001371  00000-0  13169-4 0  9999,2 55308  69.9981 181.2559 0002578 286.5008  73.5904 15.69916463 15528,6737.273,91.725,360.875,357.401,0.0
55308.0,STARLINK-5292,PAYLOAD,2023-04-18 07:35:16,15.69998148,0.0003239,70.0008,179.2876,265.9041,94.1785,0.00010825,0.00012863,0.0,0 STARLINK-5292,1 55308U 23010AR  23108.31615925  .00012863  00000-0  10825-3 0  9992,2 55308  70.0008 179.2876 0003239 265.9041  94.1785 15.69998148 15631,6737.039,91.72,361.086,356.722,0.0
55308.0,STARLINK-5292,PAYLOAD,2023-04-18 16:45:50,15.6991777,0.0003473,69.9972,178.2105,266.1551,93.9248,-4.89e-06,-8.01e-06,0.0,0 STARLINK-5292,1 55308U 23010AR  23108.69850164 -.00000801  00000-0 -48900-5 0  9997,2 55308  69.9972 178.2105 0003473 266.1551  93.9248 15.69917770 15690,6737.269,91.725,361.474,356.794,0.0
55308.0,STARLINK-5292,PAYLOAD,2023-04-19 04:59:53,15.69904177,0.0002109,69.9979,176.7773,248.5072,111.5899,-2.5742e-05,-3.303e-05,0.0,0 STARLINK-5292,1 55308U 23010AR  23109.20826358 -.00003303  00000-0 -25742-4 0  9991,2 55308  69.9979 176.7773 0002109 248.5072 111.5899 15.69904177 14581,6737.308,91.725,360.594,357.752,0.0
55308.0,STARLINK-5292,PAYLOAD,2023-04-19 12:38:11,15.7027332,0.0003946,69.998,175.8799,231.5701,128.5141,0.00038073,0.00046496,0.0,0 STARLINK-5292,1 55308U 23010AR  23109.52652595  .00046496  00000-0  38073-3 0  9994,2 55308  69.9980 175.8799 0003946 231.5701 128.5141 15.70273320 15829,6736.252,91.704,360.775,355.459,0.0
55308.0,STARLINK-5292,PAYLOAD,2023-04-20 02:24:25,15.69914305,0.0003556,69.9961,174.269,269.9573,90.1215,-3.2525e-05,-4.12e-05,0.0,0 STARLINK-5292,1 55308U 23010AR  23110.10029651 -.00004120  00000-0 -32525-4 0  9998,2 55308  69.9961 174.2690 0003556 269.9573  90.1215 15.69914305 14727,6737.279,91.725,361.54,356.748,0.0
55308.0,STARLINK-5292,PAYLOAD,2023-04-20 06:59:41,15.69890426,0.0004068,70.0001,173.7327,290.3695,69.7063,-0.00013289,-0.00016142,0.0,0 STARLINK-5292,1 55308U 23010AR  23110.29144824 -.00016142  00000-0 -13289-3 0  9990,2 55308  70.0001 173.7327 0004068 290.3695  69.7063 15.69890426 15943,6737.347,91.726,361.953,356.472,0.0
55308.0,STARLINK-5292,PAYLOAD,2023-04-20 16:10:16,15.69888848,0.0002695,69.9994,172.6582,271.1299,88.9588,-6.3648e-05,-7.846e-05,0.0,0 STARLINK-5292,1 55308U 23010AR  23110.67380099 -.00007846  00000-0 -63648-4 0  9994,2 55308  69.9994 172.6582 0002695 271.1299  88.9588 15.69888848 14818,6737.352,91.726,361.033,357.401,0.0
55308.0,STARLINK-5292,PAYLOAD,2023-04-21 12:02:59,15.69918625,0.0003833,69.9984,170.3288,286.289,73.7884,6.3487e-05,7.426e-05,0.0,0 STARLINK-5292,1 55308U 23010AR  23111.50208278  .00007426  00000-0  63487-4 0  9998,2 55308  69.9984 170.3288 0003833 286.2890  73.7884 15.69918625 14946,6737.267,91.724,361.714,356.549,0.0
